SOYUZ-MS 28             
1 66664U 25275A   25343.89682520  .00014877  00000+0  27325-3 0  9994
2 66664  51.6313 156.5563 0003347 226.2924 133.7787 15.49459040  2003
1998-067XS              
1 66906U 98067XS  25344.02220670  .00036365  00000+0  63424-3 0  9998
2 66906  51.6303 155.8936 0003912 190.7132 169.3774 15.50350034  1196
1998-067XT              
1 66907U 98067XT  25343.50529068  .00076342  00000+0  12921-2 0  9998
2 66907  51.6307 158.4423 0004803 208.5081 151.5646 15.50864429  1113
1998-067XU              
1 66908U 98067XU  25343.95612625  .00081745  00000+0  13761-2 0  9996
2 66908  51.6304 156.2020 0004997 209.1255 150.9456 15.50986187  1189
SILVERSAT               
1 66909U 98067XV  25343.82707981  .00091886  00000+0  15400-2 0  9992
2 66909  51.6304 156.8402 0004877 210.6195 149.4510 15.51056405  1161
1998-067XW              
1 66910U 98067XW  25343.76145936  .00077029  00000+0  12863-2 0  9996
2 66910  51.6303 157.1524 0005725 193.6821 166.4014 15.51233501  1151
1998-067XX              
1 66911U 98067XX  25343.11695649  .00085582  00000+0  14246-2 0  9997
2 66911  51.6296 160.3494 0005703 191.2268 168.8595 15.51276485  1046
1998-067XY              
1 66912U 98067XY  25342.79680750  .00056065  00000+0  96272-3 0  9992
2 66912  51.6301 161.9610 0005043 202.8278 157.2488 15.50590071   993
